{
  "type": "FeatureCollection",
  "features": [
    {
      "type": "Feature",
      "properties": {
        "norad_id": 34141,
        "name": "COSMOS 2251 DEB",
        "group": "cosmos-2251-debris",
        "lat": 34.959280865808275,
        "lon": 41.046099469891665,
        "alt_km": 719.0408113073472,
        "timestamp": "2025-12-12T09:49:09.125811+00:00",
        "meta_object_name": "COSMOS 2251 DEB",
        "meta_object_id": "1993-036LN",
        "meta_epoch": "2025-12-12T03:10:02.074944",
        "meta_mean_motion": 14.49232545,
        "meta_eccentricity": 0.0047258,
        "meta_inclination": 74.0112,
        "meta_ra_of_asc_node": 30.0026,
        "meta_arg_of_pericenter": 116.5052,
        "meta_mean_anomaly": 275.2538,
        "meta_ephemeris_type": 0,
        "meta_classification_type": "U",
        "meta_norad_cat_id": 34141,
        "meta_element_set_no": 999,
        "meta_rev_at_epoch": 87685,
        "meta_bstar": 0.0022925,
        "meta_mean_motion_dot": 8.845e-05,
        "meta_mean_motion_ddot": 0,
        "tle_line1": "1 34141U 93036LN  25346.13196846  .00008845  00000+0  22925-2 0  9998",
        "tle_line2": "2 34141  74.0112  30.0026 0047258 116.5052 275.2538 14.49232545876852"
      },
      "geometry": {
        "type": "Point",
        "coordinates": [
          41.046099469891665,
          34.959280865808275
        ]
      }
    },
    {
      "type": "Feature",
      "properties": {
        "norad_id": 34270,
        "name": "COSMOS 2251 DEB",
        "group": "cosmos-2251-debris",
        "lat": -24.760942456653986,
        "lon": -60.335065033148965,
        "alt_km": 701.4341887008513,
        "timestamp": "2025-12-12T09:49:09.125821+00:00",
        "meta_object_name": "COSMOS 2251 DEB",
        "meta_object_id": "1993-036LQ",
        "meta_epoch": "2025-12-12T00:06:17.695872",
        "meta_mean_motion": 14.65158625,
        "meta_eccentricity": 0.0047779,
        "meta_inclination": 74.0115,
        "meta_ra_of_asc_node": 308.0439,
        "meta_arg_of_pericenter": 101.0421,
        "meta_mean_anomaly": 259.6126,
        "meta_ephemeris_type": 0,
        "meta_classification_type": "U",
        "meta_norad_cat_id": 34270,
        "meta_element_set_no": 999,
        "meta_rev_at_epoch": 89085,
        "meta_bstar": 0.0012114,
        "meta_mean_motion_dot": 6.6e-05,
        "meta_mean_motion_ddot": 0,
        "tle_line1": "1 34270U 93036LQ  25346.00437148  .00006600  00000+0  12114-2 0  9996",
        "tle_line2": "2 34270  74.0115 308.0439 0047779 101.0421 259.6126 14.65158625890850"
      },
      "geometry": {
        "type": "Point",
        "coordinates": [
          -60.335065033148965,
          -24.760942456653986
        ]
      }
    },
    {
      "type": "Feature",
      "properties": {
        "norad_id": 34271,
        "name": "COSMOS 2251 DEB",
        "group": "cosmos-2251-debris",
        "lat": -73.50915581992328,
        "lon": 124.51574215805881,
        "alt_km": 653.1640205537124,
        "timestamp": "2025-12-12T09:49:09.125831+00:00",
        "meta_object_name": "COSMOS 2251 DEB",
        "meta_object_id": "1993-036LR",
        "meta_epoch": "2025-12-12T00:58:38.627904",
        "meta_mean_motion": 14.70736042,
        "meta_eccentricity": 0.0018858,
        "meta_inclination": 74.0204,
        "meta_ra_of_asc_node": 200.6858,
        "meta_arg_of_pericenter": 254.8683,
        "meta_mean_anomaly": 229.3614,
        "meta_ephemeris_type": 0,
        "meta_classification_type": "U",
        "meta_norad_cat_id": 34271,
        "meta_element_set_no": 999,
        "meta_rev_at_epoch": 88224,
        "meta_bstar": 0.0028463,
        "meta_mean_motion_dot": 0.0001742,
        "meta_mean_motion_ddot": 0,
        "tle_line1": "1 34271U 93036LR  25346.04072486  .00017420  00000+0  28463-2 0  9997",
        "tle_line2": "2 34271  74.0204 200.6858 0018858 254.8683 229.3614 14.70736042882246"
      },
      "geometry": {
        "type": "Point",
        "coordinates": [
          124.51574215805881,
          -73.50915581992328
        ]
      }
    },
    {
      "type": "Feature",
      "properties": {
        "norad_id": 34273,
        "name": "COSMOS 2251 DEB",
        "group": "cosmos-2251-debris",
        "lat": -51.95820754192214,
        "lon": 66.59947754712047,
        "alt_km": 696.0126628721391,
        "timestamp": "2025-12-12T09:49:09.125842+00:00",
        "meta_object_name": "COSMOS 2251 DEB",
        "meta_object_id": "1993-036LT",
        "meta_epoch": "2025-12-12T02:08:39.901344",
        "meta_mean_motion": 14.61217928,
        "meta_eccentricity": 0.0014116,
        "meta_inclination": 74.0355,
        "meta_ra_of_asc_node": 88.6706,
        "meta_arg_of_pericenter": 214.6471,
        "meta_mean_anomaly": 208.7688,
        "meta_ephemeris_type": 0,
        "meta_classification_type": "U",
        "meta_norad_cat_id": 34273,
        "meta_element_set_no": 999,
        "meta_rev_at_epoch": 88612,
        "meta_bstar": 0.0016199,
        "meta_mean_motion_dot": 7.975e-05,
        "meta_mean_motion_ddot": 0,
        "tle_line1": "1 34273U 93036LT  25346.08935071  .00007975  00000+0  16199-2 0  9998",
        "tle_line2": "2 34273  74.0355  88.6706 0014116 214.6471 208.7688 14.61217928886123"
      },
      "geometry": {
        "type": "Point",
        "coordinates": [
          66.59947754712047,
          -51.95820754192214
        ]
      }
    },
    {
      "type": "Feature",
      "properties": {
        "norad_id": 34274,
        "name": "COSMOS 2251 DEB",
        "group": "cosmos-2251-debris",
        "lat": 21.915975893181106,
        "lon": 75.83228811431803,
        "alt_km": 692.1326608511563,
        "timestamp": "2025-12-12T09:49:09.125852+00:00",
        "meta_object_name": "COSMOS 2251 DEB",
        "meta_object_id": "1993-036LU",
        "meta_epoch": "2025-12-11T12:30:20.301984",
        "meta_mean_motion": 14.64765236,
        "meta_eccentricity": 0.0022066,
        "meta_inclination": 74.0044,
        "meta_ra_of_asc_node": 70.9153,
        "meta_arg_of_pericenter": 220.9099,
        "meta_mean_anomaly": 160.9588,
        "meta_ephemeris_type": 0,
        "meta_classification_type": "U",
        "meta_norad_cat_id": 34274,
        "meta_element_set_no": 999,
        "meta_rev_at_epoch": 88658,
        "meta_bstar": 0.00249238,
        "meta_mean_motion_dot": 0.00013329,
        "meta_mean_motion_ddot": 0,
        "tle_line1": "1 34274U 93036LU  25345.52106831  .00013329  00000+0  24924-2 0  9996",
        "tle_line2": "2 34274  74.0044  70.9153 0022066 220.9099 160.9588 14.64765236886589"
      },
      "geometry": {
        "type": "Point",
        "coordinates": [
          75.83228811431803,
          21.915975893181106
        ]
      }
    },
    {
      "type": "Feature",
      "properties": {
        "norad_id": 34276,
        "name": "COSMOS 2251 DEB",
        "group": "cosmos-2251-debris",
        "lat": -29.108400379028378,
        "lon": 76.77092161343013,
        "alt_km": 709.6274064228382,
        "timestamp": "2025-12-12T09:49:09.125862+00:00",
        "meta_object_name": "COSMOS 2251 DEB",
        "meta_object_id": "1993-036LW",
        "meta_epoch": "2025-12-11T18:13:20.631648",
        "meta_mean_motion": 14.57218193,
        "meta_eccentricity": 0.00226135,
        "meta_inclination": 74.0233,
        "meta_ra_of_asc_node": 87.1847,
        "meta_arg_of_pericenter": 234.0096,
        "meta_mean_anomaly": 287.6344,
        "meta_ephemeris_type": 0,
        "meta_classification_type": "U",
        "meta_norad_cat_id": 34276,
        "meta_element_set_no": 999,
        "meta_rev_at_epoch": 88578,
        "meta_bstar": 0.0013327337,
        "meta_mean_motion_dot": 6.017e-05,
        "meta_mean_motion_ddot": 0,
        "tle_line1": "1 34276U 93036LW  25345.75926657  .00006017  00000+0  13327-2 0  9990",
        "tle_line2": "2 34276  74.0233  87.1847 0022613 234.0096 287.6344 14.57218193885787"
      },
      "geometry": {
        "type": "Point",
        "coordinates": [
          76.77092161343013,
          -29.108400379028378
        ]
      }
    },
    {
      "type": "Feature",
      "properties": {
        "norad_id": 34297,
        "name": "COSMOS 2251 DEB",
        "group": "cosmos-2251-debris",
        "lat": 5.83267076532114,
        "lon": -73.48626524131126,
        "alt_km": 759.4436532587742,
        "timestamp": "2025-12-12T09:49:09.125873+00:00",
        "meta_object_name": "COSMOS 2251 DEB",
        "meta_object_id": "1993-036MT",
        "meta_epoch": "2025-12-12T00:09:23.067936",
        "meta_mean_motion": 14.36628278,
        "meta_eccentricity": 0.0017255,
        "meta_inclination": 74.0486,
        "meta_ra_of_asc_node": 285.5785,
        "meta_arg_of_pericenter": 354.3325,
        "meta_mean_anomaly": 90.3669,
        "meta_ephemeris_type": 0,
        "meta_classification_type": "U",
        "meta_norad_cat_id": 34297,
        "meta_element_set_no": 999,
        "meta_rev_at_epoch": 88054,
        "meta_bstar": 0.00023656,
        "meta_mean_motion_dot": 6.71e-06,
        "meta_mean_motion_ddot": 0,
        "tle_line1": "1 34297U 93036MT  25346.00651699  .00000671  00000+0  23656-3 0  9990",
        "tle_line2": "2 34297  74.0486 285.5785 0017255 354.3325  90.3669 14.36628278880546"
      },
      "geometry": {
        "type": "Point",
        "coordinates": [
          -73.48626524131126,
          5.83267076532114
        ]
      }
    }
  ]
}